40269,IRNSS-1C,2014,1436.15,1425.0,+,4.3,Active,1,GSO,India,India,Government,Navigation (Global or Regional Positioning),PSLV,1 40269U 14061A   24020.33417162 -.00000161  00000+0  00000+0 0  9995,2 40269   4.3017 108.7115 0017684   1.3445 212.3805  1.00275182 33872,1.00275182,0.0017684,GSO
40534,NAVSTAR 73 (USA 260),2015,717.94,1630.0,+,53.4,Active,1,MEO,USA,USA,Commercial/Military,Navigation (Global or Regional Positioning),Delta,1 40534U 15013A   24020.56755950  .00000071  00000+0  00000+0 0  9992,2 40534  53.4013 240.5589 0086519  28.5069 332.0308  2.00574723 64207,2.00574723,0.0086519,MEO
40544,GSAT0203 (GALILEO 7),2015,844.7,723.0,+,56.92,Active,1,MEO,French Guiana,ESA,Commercial,Navigation (Global or Regional Positioning),Soyuz,1 40544U 15017A   24019.33669010 -.00000087  00000+0  00000+0 0  9999,2 40544  56.9196   5.5411 0005409 274.3005  85.6396  1.70475727 54208,1.70475727,0.0005409,MEO
40545,GSAT0204 (GALILEO 8),2015,844.7,723.0,+,56.93,Active,1,MEO,French Guiana,ESA,Commercial,Navigation (Global or Regional Positioning),Soyuz,1 40545U 15017B   24020.17727527 -.00000089  00000+0  00000+0 0  9994,2 40545  56.9261   5.5330 0004913 264.4560  95.4887  1.70475440 17268,1.7047544,0.0004913,MEO
40547,IRNSS-1D,2015,1436.19,1425.0,+,27.79,Active,1,GSO,India,India,Government,Navigation (Global or Regional Positioning),PSLV,1 40547U 15018A   24019.55225375 -.00000257  00000+0  00000+0 0  9998,2 40547  27.7910 255.2870 0018726 179.1795 354.4710  1.00265146 32420,1.00265146,0.0018726,GSO
40549,BEIDOU-3S IGSO-1S,2015,1435.95,4200.0,S,50.85,Active,1,GSO,PRC,China,Government/Military,Navigation (Global or Regional Positioning),Long March,1 40549U 15019A   24019.76577078 -.00000197  00000+0  00000+0 0  9997,2 40549  50.8487 305.9542 0035500 194.7717 349.0522  1.00282018 32252,1.00282018,0.00355,GSO
40730,NAVSTAR 74 (USA 262),2015,717.94,1630.0,+,54.73,Active,1,MEO,USA,USA,Commercial/Military,Navigation (Global or Regional Positioning),Atlas,1 40730U 15033A   24020.23027037 -.00000076  00000+0  00000+0 0  9990,2 40730  54.7267 303.1264 0091517  16.0510 344.2598  2.00574706 62365,2.00574706,0.0091517,MEO
40748,BEIDOU-3S M2S,2015,773.23,800.0,S,55.58,Active,1,MEO,PRC,China,Government/Military,Navigation (Global or Regional Positioning),Long March,1 40748U 15037A   24019.25447201 -.00000105  00000+0  00000+0 0  9995,2 40748  55.5794 332.1257 0011513 264.1158  95.7480  1.86232978 57732,1.86232978,0.0011513,MEO
40749,BEIDOU-3S M1S,2015,773.23,800.0,S,55.58,Active,1,MEO,PRC,China,Government/Military,Navigation (Global or Regional Positioning),Long March,1 40749U 15037B   24020.06167062 -.00000110  00000+0  00000+0 0  9997,2 40749  55.5823 332.0850 0006926 324.9380  35.0096  1.86232896 57759,1.86232896,0.0006926,MEO
40889,GSAT0205 (GALILEO 9),2015,844.71,723.0,+,55.29,Active,1,MEO,French Guiana,ESA,Commercial,Navigation (Global or Regional Positioning),Soyuz,1 40889U 15045A   24019.94594390  .00000055  00000+0  00000+0 0  9991,2 40889  55.2893 245.8942 0006301  36.8709 323.2460  1.70473092 52022,1.70473092,0.0006301,MEO
40890,GSAT0206 (GALILEO 10),2015,844.71,723.0,+,55.29,Active,1,MEO,French Guiana,ESA,Commercial,Navigation (Global or Regional Positioning),Soyuz,1 40890U 15045B   24020.16658324  .00000056  00000+0  00000+0 0  9998,2 40890  55.2881 245.8836 0004275  34.8956 325.2067  1.70473227 52051,1.70473227,0.0004275,MEO
40938,BEIDOU-3S IGSO-2S,2015,1436.37,4200.0,S,50.59,Active,1,GSO,PRC,China,Government/Military,Navigation (Global or Regional Positioning),Long March,1 40938U 15053A   24017.60469617 -.00000107  00000+0  00000+0 0  9998,2 40938  50.5932 269.1737 0046153 191.7705 325.9662  1.00252427 30519,1.00252427,0.0046153,GSO
41019,NAVSTAR 75 (USA 265),2015,717.98,1630.0,+,56.28,Active,1,MEO,USA,USA,Commercial/Military,Navigation (Global or Regional Positioning),Atlas,1 41019U 15062A   24020.28195712 -.00000066  00000+0  00000+0 0  9993,2 41019  56.2761  64.9079 0094421 224.1003 135.1994  2.00562260 60204,2.0056226,0.0094421,MEO
41028,GSAT-15,2015,1436.09,3164.0,+,0.09,Active,1,GSO,French Guiana,India,Government,Communications,Ariane,1 41028U 15065A   24019.62008123 -.00000253  00000+0  00000+0 0  9999,2 41028   0.0938 266.4220 0002010 350.9223 177.8563  1.00273532 30043,1.00273532,0.000201,GEO
41174,GSAT0209 (GALILEO 12),2015,844.7,723.0,+,55.36,Active,1,MEO,French Guiana,ESA,Commercial,Navigation (Global or Regional Positioning),Soyuz,1 41174U 15079A   24018.57714605 -.00000015  00000+0  00000+0 0  9994,2 41174  55.3587 125.4547 0002520 309.0026  50.9607  1.70474723 49767,1.70474723,0.000252,MEO
41175,GSAT0208 (GALILEO 11),2015,844.7,723.0,+,55.36,Active,1,MEO,French Guiana,ESA,Commercial,Navigation (Global or Regional Positioning),Soyuz,1 41175U 15079B   24019.38340132 -.00000023  00000+0  00000+0 0  9994,2 41175  55.3574 125.4304 0004323 292.0164  67.9203  1.70474220 50193,1.7047422,0.0004323,MEO
41241,IRNSS-1E,2016,1436.06,1425.0,+,31.29,Active,1,GSO,India,India,Government,Navigation (Global or Regional Positioning),PSLV,1 41241U 16003A   24018.61873488 -.00000315  00000+0  00000+0 0  9990,2 41241  31.2882  75.7390 0021818 189.5490 186.8229  1.00274643 29379,1.00274643,0.0021818,GSO
41328,NAVSTAR 76 (USA 266),2016,717.96,1630.0,+,55.07,Active,1,MEO,USA,USA,Commercial/Military,Navigation (Global or Regional Positioning),Atlas,1 41328U 16007A   24019.86738293 -.00000034  00000+0  00000+0 0  9990,2 41328  55.0671 124.3853 0076137 235.2928 123.9800  2.00568998 58200,2.00568998,0.0076137,MEO
41330,COSMOS 2514 [GLONASS-M],2016,675.73,1415.0,+,65.46,Active,1,MEO,Russia,Russia/USSR,Commercial/Military,Navigation (Global or Regional Positioning),Soyuz,1 41330U 16008A   24020.35975119 -.00000081  00000+0  00000+0 0  9992,2 41330  65.4616 342.9962 0010505 225.6783 134.2298  2.13102590 61896,2.1310259,0.0010505,MEO
41384,IRNSS-1F,2016,1436.17,1425.0,+,3.23,Active,1,GSO,India,India,Government,Navigation (Global or Regional Positioning),PSLV,1 41384U 16015A   24020.25254426  .00000160  00000+0  00000+0 0  9996,2 41384   3.2298 123.6583 0021499 184.9694 293.8293  1.00267503 28853,1.00267503,0.0021499,GSO
41434,BEIDOU-2 IGSO-6,2016,1436.32,4200.0,+,58.95,Active,1,GSO,PRC,China,Government/Military,Navigation (Global or Regional Positioning),Long March,1 41434U 16021A   24020.54204378 -.00000140  00000+0  00000+0 0  9991,2 41434  58.9528  46.8512 0049449 225.5940 135.1077  1.00256416 28670,1.00256416,0.0049449,GSO
41469,IRNSS-1G,2016,1436.03,1425.0,P,3.11,Active,1,GSO,India,India,Government,Navigation (Global or Regional Positioning),PSLV,1 41469U 16027A   24020.55834225 -.00000333  00000+0  00000+0 0  9990,2 41469   3.1142 125.0390 0003834 273.2787  51.5985  1.00276171 28368,1.00276171,0.0003834,GSO
41549,GSAT0211 (GALILEO 14),2016,844.71,723.0,+,55.44,Active,1,MEO,French Guiana,ESA,Commercial,Navigation (Global or Regional Positioning),Soyuz,1 41549U 16030A   24020.09229492  .00000056  00000+0  00000+0 0  9997,2 41549  55.4357 245.8808 0004173   8.7062 351.3752  1.70473307 47680,1.70473307,0.0004173,MEO
41550,GSAT0210 (GALILEO 13),2016,844.71,723.0,+,55.44,Active,1,MEO,French Guiana,ESA,Commercial,Navigation (Global or Regional Positioning),Soyuz,1 41550U 16030B   24019.79700369  .00000054  00000+0  00000+0 0  9999,2 41550  55.4354 245.8900 0002040 351.3572   8.7123  1.70473475 47676,1.70473475,0.000204,MEO
41586,BEIDOU-2 G7,2016,1436.08,3800.0,+,1.55,Active,1,GSO,PRC,China,Government/Military,Navigation (Global or Regional Positioning),Long March,1 41586U 16037A   24020.50813471 -.00000351  00000+0  00000+0 0  9996,2 41586   1.5518  67.3041 0009343 314.8368  30.7280  1.00272286 27972,1.00272286,0.0009343,GSO
41589,EUTELSAT 117 WEST B,2016,1436.08,5500.0,+,0.0,Active,1,GSO,USA,EUTELSAT,Commercial,Communications,Falcon,1 41589U 16038B   24020.29806125 -.00000007  00000+0  00000+0 0  9992,2 41589   0.0070 126.1706 0000218 261.4959  81.7948  1.00272075 27859,1.00272075,2.18e-05,GEO
41860,GSAT0212 (GALILEO 16),2016,844.7,723.0,+,55.02,Active,1,MEO,French Guiana,ESA,Commercial,Navigation (Global or Regional Positioning),Ariane,1 41860U 16069B   24019.89852295 -.00000028  00000+0  00000+0 0  9994,2 41860  55.0204 125.4530 0001535 325.6450  34.3254  1.70474927 44668,1.70474927,0.0001535,MEO
